NORAD_CAT_ID,OBJECT_NAME,OBJECT_TYPE,EPOCH,MEAN_MOTION,ECCENTRICITY,INCLINATION,RA_OF_ASC_NODE,ARG_OF_PERICENTER,MEAN_ANOMALY,BSTAR,MEAN_MOTION_DOT,MEAN_MOTION_DDOT,TLE_LINE0,TLE_LINE1,TLE_LINE2,SEMIMAJOR_AXIS,PERIOD,APOGEE,PERIGEE,DECAYED
52875.0,STARLINK-4193,PAYLOAD,2024-06-19 14:20:11,15.08834793,0.0001384,53.2182,313.737,91.8471,268.2679,-1.5502e-05,-5.35e-06,0.0,0 STARLINK-4193,1 52875U 22062AX  24171.59735570 -.00000535  00000-0 -15502-4 0  9997,2 52875  53.2182 313.7370 0001384  91.8471 268.2679 15.08834793111247,6917.896,95.438,540.719,538.804,0.0
52875.0,STARLINK-4193,PAYLOAD,2024-06-19 15:55:34,15.08835204,0.0001343,53.2178,313.4394,94.4118,265.7027,-9.7311e-06,-4.43e-06,0.0,0 STARLINK-4193,1 52875U 22062AX  24171.66359533 -.00000443  00000-0 -97311-5 0  9993,2 52875  53.2178 313.4394 0001343  94.4118 265.7027 15.08835204111749,6917.895,95.438,540.689,538.831,0.0
52875.0,STARLINK-4193,PAYLOAD,2024-06-20 14:10:58,15.08835155,0.0001222,53.2175,309.2763,97.2967,262.8164,5.47e-05,5.83e-06,0.0,0 STARLINK-4193,1 52875U 22062AX  24172.59095368  .00000583  00000-0  54700-4 0  9996,2 52875  53.2175 309.2763 0001222  97.2967 262.8164 15.08835155111394,6917.895,95.438,540.606,538.915,0.0
52875.0,STARLINK-4193,PAYLOAD,2024-06-20 18:57:07,15.08843029,0.0001217,53.2184,308.3825,100.5307,259.5822,2.9411e-05,1.8e-06,0.0,0 STARLINK-4193,1 52875U 22062AX  24172.78966993  .00000180  00000-0  29411-4 0  9992,2 52875  53.2184 308.3825 0001217 100.5307 259.5822 15.08843029111914,6917.871,95.437,540.578,538.894,0.0
52875.0,STARLINK-4193,PAYLOAD,2024-06-21 12:26:22,15.08833345,0.0001198,53.2184,305.1111,109.2008,250.9114,0.00010555,1.392e-05,0.0,0 STARLINK-4193,1 52875U 22062AX  24173.51831369  .00001392  00000-0  10555-3 0  9996,2 52875  53.2184 305.1111 0001198 109.2008 250.9114 15.08833345112021,6917.901,95.438,540.594,538.937,0.0
52875.0,STARLINK-4193,PAYLOAD,2024-06-21 14:01:45,15.0882736,0.0001295,53.2185,304.8135,110.9111,249.2019,0.00019954,2.888e-05,0.0,0 STARLINK-4193,1 52875U 22062AX  24173.58455596  .00002888  00000-0  19954-3 0  9990,2 52875  53.2185 304.8135 0001295 110.9111 249.2019 15.08827360111547,6917.919,95.438,540.68,538.888,0.0
52875.0,STARLINK-4193,PAYLOAD,2024-06-21 15:37:08,15.08838211,0.0001236,53.2185,304.5162,106.7096,253.4032,4.6181e-05,4.47e-06,0.0,0 STARLINK-4193,1 52875U 22062AX  24173.65079300  .00000447  00000-0  46181-4 0  9995,2 52875  53.2185 304.5162 0001236 106.7096 253.4032 15.08838211111554,6917.886,95.438,540.606,538.896,0.0
52875.0,STARLINK-4193,PAYLOAD,2024-06-22 13:52:32,15.08834886,0.0001184,53.218,300.3532,109.8434,250.2685,3.7964e-05,3.16e-06,0.0,0 STARLINK-4193,1 52875U 22062AX  24174.57815686  .00000316  00000-0  37964-4 0  9996,2 52875  53.2180 300.3532 0001184 109.8434 250.2685 15.08834886111694,6917.896,95.438,540.58,538.942,0.0
52875.0,STARLINK-4193,PAYLOAD,2024-06-22 15:27:55,15.08836571,0.0001122,53.2184,300.0564,89.2909,270.8211,6.3316e-06,-1.87e-06,0.0,0 STARLINK-4193,1 52875U 22062AX  24174.64439776 -.00000187  00000-0  63316-5 0  9994,2 52875  53.2184 300.0564 0001122  89.2909 270.8211 15.08836571112192,6917.891,95.438,540.532,538.98,0.0
52875.0,STARLINK-4193,PAYLOAD,2024-06-23 12:07:57,15.08825555,0.0001221,53.2187,296.1917,96.9907,263.1224,-3.5703e-05,-8.56e-06,0.0,0 STARLINK-4193,1 52875U 22062AX  24175.50553063 -.00000856  00000-0 -35703-4 0  9998,2 52875  53.2187 296.1917 0001221  96.9907 263.1224 15.08825555112329,6917.925,95.438,540.634,538.945,0.0
52875.0,STARLINK-4193,PAYLOAD,2024-06-23 13:43:21,15.08823832,0.0001209,53.2188,295.8945,97.111,263.0019,-5.1408e-05,-1.105e-05,0.0,0 STARLINK-4193,1 52875U 22062AX  24175.57177283 -.00001105  00000-0 -51408-4 0  9999,2 52875  53.2188 295.8945 0001209  97.1110 263.0019 15.08823832111845,6917.93,95.439,540.631,538.958,0.0
52875.0,STARLINK-4193,PAYLOAD,2024-06-23 16:54:07,15.08819672,0.0001161,53.2182,295.2995,95.0796,265.0329,-8.5085e-05,-1.641e-05,0.0,0 STARLINK-4193,1 52875U 22062AX  24175.70425792 -.00001641  00000-0 -85085-4 0  9998,2 52875  53.2182 295.2995 0001161  95.0796 265.0329 15.08819672112352,6917.943,95.439,540.611,539.004,0.0
52875.0,STARLINK-4193,PAYLOAD,2024-06-24 13:34:08,15.08830982,0.000138,53.2185,291.435,86.2803,273.8347,8.0373e-05,9.91e-06,0.0,0 STARLINK-4193,1 52875U 22062AX  24176.56537218  .00000991  00000-0  80373-4 0  9990,2 52875  53.2185 291.4350 0001380  86.2803 273.8347 15.08830982112480,6917.908,95.438,540.728,538.818,0.0
52875.0,STARLINK-4193,PAYLOAD,2024-06-24 15:09:30,15.08844785,0.0001095,53.2179,291.1369,93.5188,266.5929,0.00017684,2.528e-05,0.0,0 STARLINK-4193,1 52875U 22062AX  24176.63160045  .00002528  00000-0  17684-3 0  9990,2 52875  53.2179 291.1369 0001095  93.5188 266.5929 15.08844785112492,6917.866,95.437,540.488,538.973,0.0
52875.0,STARLINK-4193,PAYLOAD,2024-06-25 11:49:31,15.0883764,0.0001262,53.2182,287.2701,71.8488,288.2642,0.00023409,3.439e-05,0.0,0 STARLINK-4193,1 52875U 22062AX  24177.49272316  .00003439  00000-0  23409-3 0  9994,2 52875  53.2182 287.2701 0001262  71.8488 288.2642 15.08837640112620,6917.888,95.438,540.626,538.88,0.0
52875.0,STARLINK-4193,PAYLOAD,2024-06-25 13:24:54,15.0883847,0.0001292,53.2182,286.9729,70.1057,290.0074,0.00023612,3.472e-05,0.0,0 STARLINK-4193,1 52875U 22062AX  24177.55896281  .00003472  00000-0  23612-3 0  9997,2 52875  53.2182 286.9729 0001292  70.1057 290.0074 15.08838470112142,6917.885,95.438,540.644,538.856,0.0
52875.0,STARLINK-4193,PAYLOAD,2024-06-25 15:00:17,15.08840573,0.0001342,53.2187,286.6764,71.3744,288.7394,0.00025521,3.776e-05,0.0,0 STARLINK-4193,1 52875U 22062AX  24177.62520097  .00003776  00000-0  25521-3 0  9992,2 52875  53.2187 286.6764 0001342  71.3744 288.7394 15.08840573112152,6917.879,95.438,540.672,538.815,0.0
52875.0,STARLINK-4193,PAYLOAD,2024-06-26 11:40:18,15.08853515,0.0001655,53.2193,282.8095,61.0101,299.1057,2.2467e-06,-2.52e-06,0.0,0 STARLINK-4193,1 52875U 22062AX  24178.48631966 -.00000252  00000-0  22467-5 0  9990,2 52875  53.2193 282.8095 0001655  61.0101 299.1057 15.08853515112280,6917.839,95.437,540.849,538.559,0.0
52875.0,STARLINK-4193,PAYLOAD,2024-06-27 13:06:27,15.08850731,0.0001353,53.2186,278.0543,105.9163,254.1978,-7.3052e-05,-1.451e-05,0.0,0 STARLINK-4193,1 52875U 22062AX  24179.54615534 -.00001451  00000-0 -73052-4 0  9999,2 52875  53.2186 278.0543 0001353 105.9163 254.1978 15.08850731112930,6917.848,95.437,540.649,538.777,0.0
52875.0,STARLINK-4193,PAYLOAD,2024-06-28 12:57:14,15.08843074,0.0001354,53.2179,273.5956,87.6092,272.5056,5.5812e-05,6.01e-06,0.0,0 STARLINK-4193,1 52875U 22062AX  24180.53975462  .00000601  00000-0  55812-4 0  9997,2 52875  53.2179 273.5956 0001354  87.6092 272.5056 15.08843074113088,6917.871,95.437,540.673,538.799,0.0
52875.0,STARLINK-4193,PAYLOAD,2024-06-29 12:48:03,15.08814264,0.0001183,53.2166,269.1318,81.579,278.5337,-0.00012854,-2.331e-05,0.0,0 STARLINK-4193,1 52875U 22062AX  24181.53337220 -.00002331  00000-0 -12854-3 0  9994,2 52875  53.2166 269.1318 0001183  81.5790 278.5337 15.08814264113239,6917.959,95.439,540.642,539.006,0.0
52875.0,STARLINK-4193,PAYLOAD,2024-06-29 15:58:49,15.08814575,0.0001198,53.2168,268.5376,82.0929,278.0199,-0.00011939,-2.186e-05,0.0,0 STARLINK-4193,1 52875U 22062AX  24181.66585395 -.00002186  00000-0 -11939-3 0  9997,2 52875  53.2168 268.5376 0001198  82.0929 278.0199 15.08814575112767,6917.958,95.439,540.652,538.994,0.0
52875.0,STARLINK-4193,PAYLOAD,2024-06-29 22:20:22,15.0882215,0.0001274,53.2178,267.3505,85.8738,274.24,-5.7378e-05,-1.2e-05,0.0,0 STARLINK-4193,1 52875U 22062AX  24181.93081091 -.00001200  00000-0 -57378-4 0  9995,2 52875  53.2178 267.3505 0001274  85.8738 274.2400 15.08822150113293,6917.935,95.439,540.681,538.919,0.0
52875.0,STARLINK-4193,PAYLOAD,2024-06-30 12:38:49,15.08835832,0.00013,53.2165,264.6748,87.7423,272.3718,-4.15e-05,-9.48e-06,0.0,0 STARLINK-4193,1 52875U 22062AX  24182.52696073 -.00000948  00000-0 -41500-4 0  9991,2 52875  53.2165 264.6748 0001300  87.7423 272.3718 15.08835832113382,6917.893,95.438,540.657,538.859,0.0
52875.0,STARLINK-4193,PAYLOAD,2024-06-30 22:11:07,15.08848197,0.0001399,53.2175,262.8899,80.5955,279.5195,0.0002448,3.611e-05,0.0,0 STARLINK-4193,1 52875U 22062AX  24182.92439562  .00003611  00000-0  24480-3 0  9998,2 52875  53.2175 262.8899 0001399  80.5955 279.5195 15.08848197112957,6917.855,95.437,540.688,538.753,0.0
52875.0,STARLINK-4193,PAYLOAD,2024-07-01 14:04:58,15.08862455,0.0001105,53.2151,259.9143,75.3738,284.7376,0.00052306,8.051e-05,0.0,0 STARLINK-4193,1 52875U 22062AX  24183.58678868  .00008051  00000-0  52306-3 0  9996,2 52875  53.2151 259.9143 0001105  75.3738 284.7376 15.08862455113050,6917.812,95.436,540.441,538.912,0.0
52875.0,STARLINK-4193,PAYLOAD,2024-07-01 22:01:54,15.08860521,0.0001079,53.2163,258.4292,86.8791,273.2325,0.00058364,9.018e-05,0.0,0 STARLINK-4193,1 52875U 22062AX  24183.91798774  .00009018  00000-0  58364-3 0  9996,2 52875  53.2163 258.4292 0001079  86.8791 273.2325 15.08860521113103,6917.818,95.436,540.429,538.936,0.0
52875.0,STARLINK-4193,PAYLOAD,2024-07-02 12:20:23,15.0882366,0.0001095,53.2162,255.7509,92.8653,267.2464,-0.00038053,-6.336e-05,0.0,0 STARLINK-4193,1 52875U 22062AX  24184.51416147 -.00006336  00000-0 -38053-3 0  9999,2 52875  53.2162 255.7509 0001095  92.8653 267.2464 15.08823660113688,6917.93,95.439,540.553,539.038,0.0
52875.0,STARLINK-4193,PAYLOAD,2024-07-02 13:55:46,15.08828306,0.0001003,53.2151,255.4552,97.7577,262.3529,-0.00027256,-4.621e-05,0.0,0 STARLINK-4193,1 52875U 22062AX  24184.58040042 -.00004621  00000-0 -27256-3 0  9991,2 52875  53.2151 255.4552 0001003  97.7577 262.3529 15.08828306113207,6917.916,95.438,540.475,539.087,0.0
52875.0,STARLINK-4193,PAYLOAD,2024-07-03 10:35:48,15.08833645,0.0001106,53.2159,251.5892,106.8947,253.2167,0.00056464,8.708e-05,0.0,0 STARLINK-4193,1 52875U 22062AX  24185.44152856  .00008708  00000-0  56464-3 0  9995,2 52875  53.2159 251.5892 0001106 106.8947 253.2167 15.08833645113823,6917.9,95.438,540.53,539.0,0.0
